STARLINK-37512          
1 69035U 26101L   26132.83335648 -.02018799  00000+0 -83290-2 0  9998
2 69035  97.2890 346.9460 0001136  95.3694 245.5136 15.88680066  2285
