{
  "norad_id": 69035,
  "name": "STARLINK-37512",
  "history": [
    {
      "epoch": "2026-05-12T20:00:01.999008Z",
      "apogee_km": 306.7425581534126,
      "perigee_km": 305.22258936234084,
      "latitude_deg": -19.20509891432237,
      "longitude_deg": 178.8747061280402,
      "height_km": 313.8770888389303,
      "semi_major_axis_km": 6684.119573757876,
      "eccentricity": 0.0001137,
      "inclination_deg": 97.289,
      "raan_deg": 346.946,
      "arg_perigee_deg": 95.3694,
      "mean_anomaly_deg": 245.5136,
      "mean_motion_rev_day": 15.88680066
    }
  ]
}